NORAD_CAT_ID,OBJECT_NAME,OBJECT_TYPE,EPOCH,MEAN_MOTION,ECCENTRICITY,INCLINATION,RA_OF_ASC_NODE,ARG_OF_PERICENTER,MEAN_ANOMALY,BSTAR,MEAN_MOTION_DOT,MEAN_MOTION_DDOT,TLE_LINE0,TLE_LINE1,TLE_LINE2,SEMIMAJOR_AXIS,PERIOD,APOGEE,PERIGEE,DECAYED
51892.0,STARLINK-3587,PAYLOAD,2023-11-11 00:34:20,15.08843466,0.0001435,53.2176,213.4219,105.8254,254.2897,-0.00014393,-2.578e-05,0.0,0 STARLINK-3587,1 51892U 22022AS  23315.02384891 -.00002578  00000-0 -14393-3 0  9999,2 51892  53.2176 213.4219 0001435 105.8254 254.2897 15.08843466 94972,6917.87,95.437,540.728,538.742,0.0
51892.0,STARLINK-3587,PAYLOAD,2023-11-11 10:06:39,15.08843442,0.0001289,53.2165,211.6346,88.3047,271.8093,-4.4789e-05,-1.001e-05,0.0,0 STARLINK-3587,1 51892U 22022AS  23315.42128710 -.00001001  00000-0 -44789-4 0  9992,2 51892  53.2165 211.6346 0001289  88.3047 271.8093 15.08843442 95038,6917.87,95.437,540.627,538.843,0.0
51892.0,STARLINK-3587,PAYLOAD,2023-11-11 16:28:12,15.08835884,0.0001247,53.2178,210.4476,94.1364,265.9771,0.00010034,1.309e-05,0.0,0 STARLINK-3587,1 51892U 22022AS  23315.68625400  .00001309  00000-0  10034-3 0  9992,2 51892  53.2178 210.4476 0001247  94.1364 265.9771 15.08835884 95076,6917.893,95.438,540.621,538.895,0.0
51892.0,STARLINK-3587,PAYLOAD,2023-11-11 21:14:22,15.08837519,0.0001215,53.2179,209.5547,99.8237,260.2892,-4.2078e-06,-3.55e-06,0.0,0 STARLINK-3587,1 51892U 22022AS  23315.88497864 -.00000355  00000-0 -42078-5 0  9992,2 51892  53.2179 209.5547 0001215  99.8237 260.2892 15.08837519 95104,6917.888,95.438,540.593,538.912,0.0
51892.0,STARLINK-3587,PAYLOAD,2023-11-12 03:35:54,15.08842738,0.0001337,53.2179,208.3638,90.9312,269.1833,2.8269e-05,1.62e-06,0.0,0 STARLINK-3587,1 51892U 22022AS  23316.14993367  .00000162  00000-0  28269-4 0  9990,2 51892  53.2179 208.3638 0001337  90.9312 269.1833 15.08842738 95149,6917.872,95.437,540.662,538.812,0.0
51892.0,STARLINK-3587,PAYLOAD,2023-11-12 21:05:09,15.08832341,0.0001385,53.2169,205.0914,105.034,255.0805,0.00010216,1.338e-05,0.0,0 STARLINK-3587,1 51892U 22022AS  23316.87858086  .00001338  00000-0  10216-3 0  9996,2 51892  53.2169 205.0914 0001385 105.0340 255.0805 15.08832341 95255,6917.904,95.438,540.727,538.811,0.0
51892.0,STARLINK-3587,PAYLOAD,2023-11-13 01:51:18,15.08845639,0.0001372,53.2167,204.1992,90.9628,269.1521,9.9693e-05,1.299e-05,0.0,0 STARLINK-3587,1 51892U 22022AS  23317.07729355  .00001299  00000-0  99693-4 0  9998,2 51892  53.2167 204.1992 0001372  90.9628 269.1521 15.08845639 95284,6917.863,95.437,540.677,538.779,0.0
51892.0,STARLINK-3587,PAYLOAD,2023-11-13 09:48:14,15.08845092,0.0001471,53.2176,202.7105,85.6694,274.4466,-1.2524e-05,-4.87e-06,0.0,0 STARLINK-3587,1 51892U 22022AS  23317.40849607 -.00000487  00000-0 -12524-4 0  9996,2 51892  53.2176 202.7105 0001471  85.6694 274.4466 15.08845092 95334,6917.865,95.437,540.747,538.712,0.0
51892.0,STARLINK-3587,PAYLOAD,2023-11-13 22:31:19,15.08837795,0.0001308,53.2171,200.3325,87.2013,272.9129,0.00022492,3.293e-05,0.0,0 STARLINK-3587,1 51892U 22022AS  23317.93841689  .00003293  00000-0  22492-3 0  9996,2 51892  53.2171 200.3325 0001308  87.2013 272.9129 15.08837795 95418,6917.887,95.438,540.657,538.847,0.0
51892.0,STARLINK-3587,PAYLOAD,2023-11-14 00:06:42,15.08845422,0.0001504,53.2171,200.0365,87.2894,272.827,0.00010145,1.327e-05,0.0,0 STARLINK-3587,1 51892U 22022AS  23318.00465475  .00001327  00000-0  10145-3 0  9998,2 51892  53.2171 200.0365 0001504  87.2894 272.8270 15.08845422 95427,6917.864,95.437,540.769,538.688,0.0
51892.0,STARLINK-3587,PAYLOAD,2023-11-14 09:39:01,15.08841706,0.0001503,53.2174,198.2526,100.7555,259.3607,2.7116e-05,1.44e-06,0.0,0 STARLINK-3587,1 51892U 22022AS  23318.40209688  .00000144  00000-0  27116-4 0  9997,2 51892  53.2174 198.2526 0001503 100.7555 259.3607 15.08841706 95482,6917.875,95.437,540.78,538.7,0.0
51892.0,STARLINK-3587,PAYLOAD,2023-11-14 22:22:06,15.08841929,0.0001586,53.2171,195.8747,82.0922,278.025,2.4235e-05,9.8e-07,0.0,0 STARLINK-3587,1 51892U 22022AS  23318.93201937  .00000098  00000-0  24235-4 0  9991,2 51892  53.2171 195.8747 0001586  82.0922 278.0250 15.08841929 95566,6917.874,95.437,540.837,538.642,0.0
51892.0,STARLINK-3587,PAYLOAD,2023-11-15 22:12:52,15.08847993,0.0001561,53.2192,191.414,86.4281,273.6889,7.0973e-05,8.42e-06,0.0,0 STARLINK-3587,1 51892U 22022AS  23319.92561130  .00000842  00000-0  70973-4 0  9992,2 51892  53.2192 191.4140 0001561  86.4281 273.6889 15.08847993 95710,6917.856,95.437,540.801,538.641,0.0
51892.0,STARLINK-3587,PAYLOAD,2023-11-16 01:23:39,15.0884593,0.0001696,53.2178,190.8188,87.8532,272.2655,0.0001147,1.538e-05,0.0,0 STARLINK-3587,1 51892U 22022AS  23320.05809092  .00001538  00000-0  11470-3 0  9999,2 51892  53.2178 190.8188 0001696  87.8532 272.2655 15.08845930 95739,6917.862,95.437,540.901,538.554,0.0
51892.0,STARLINK-3587,PAYLOAD,2023-11-16 15:42:07,15.08840096,0.0001896,53.2164,188.1414,91.8684,268.2526,3.8673e-05,3.27e-06,0.0,0 STARLINK-3587,1 51892U 22022AS  23320.65425588  .00000327  00000-0  38673-4 0  9999,2 51892  53.2164 188.1414 0001896  91.8684 268.2526 15.08840096 95821,6917.88,95.438,541.057,538.433,0.0
51892.0,STARLINK-3587,PAYLOAD,2023-11-16 22:03:40,15.08840801,0.0001893,53.2162,186.9517,92.7827,267.3382,4.0295e-05,3.53e-06,0.0,0 STARLINK-3587,1 51892U 22022AS  23320.91921495  .00000353  00000-0  40295-4 0  9998,2 51892  53.2162 186.9517 0001893  92.7827 267.3382 15.08840801 95863,6917.878,95.438,541.052,538.433,0.0
51892.0,STARLINK-3587,PAYLOAD,2023-11-17 13:57:32,15.08832957,0.0001774,53.2133,183.9779,92.2192,267.9003,-3.1712e-06,-3.39e-06,0.0,0 STARLINK-3587,1 51892U 22022AS  23321.58162109 -.00000339  00000-0 -31712-5 0  9992,2 51892  53.2133 183.9779 0001774  92.2192 267.9003 15.08832957 95966,6917.902,95.438,540.994,538.54,0.0
51892.0,STARLINK-3587,PAYLOAD,2023-11-17 21:54:27,15.08850589,0.000125,53.2147,182.4933,90.5906,269.5229,-0.00022418,-3.855e-05,0.0,0 STARLINK-3587,1 51892U 22022AS  23321.91281912 -.00003855  00000-0 -22418-3 0  9990,2 51892  53.2147 182.4933 0001250  90.5906 269.5229 15.08850589 96016,6917.848,95.437,540.578,538.848,0.0
51892.0,STARLINK-3587,PAYLOAD,2023-11-18 07:26:46,15.08846396,0.0001603,53.2156,180.7093,93.1283,266.9892,-0.00013606,-2.453e-05,0.0,0 STARLINK-3587,1 51892U 22022AS  23322.31025770 -.00002453  00000-0 -13606-3 0  9995,2 51892  53.2156 180.7093 0001603  93.1283 266.9892 15.08846396 96077,6917.861,95.437,540.835,538.617,0.0
51892.0,STARLINK-3587,PAYLOAD,2023-11-18 21:45:14,15.08836505,0.0001365,53.215,178.0325,89.7585,270.3564,5.374e-05,5.67e-06,0.0,0 STARLINK-3587,1 51892U 22022AS  23322.90641966  .00000567  00000-0  53740-4 0  9997,2 51892  53.2150 178.0325 0001365  89.7585 270.3564 15.08836505 96166,6917.891,95.438,540.7,538.812,0.0
51892.0,STARLINK-3587,PAYLOAD,2023-11-18 23:20:37,15.08838068,0.0001476,53.2141,177.7347,90.714,269.4021,6.5499e-05,7.55e-06,0.0,0 STARLINK-3587,1 51892U 22022AS  23322.97265842  .00000755  00000-0  65499-4 0  9992,2 51892  53.2141 177.7347 0001476  90.7140 269.4021 15.08838068 96172,6917.886,95.438,540.772,538.73,0.0
51892.0,STARLINK-3587,PAYLOAD,2023-11-19 13:39:06,15.08835908,0.0001533,53.2158,175.0591,86.2176,273.8991,7.3457e-05,8.81e-06,0.0,0 STARLINK-3587,1 51892U 22022AS  23323.56882179  .00000881  00000-0  73457-4 0  9999,2 51892  53.2158 175.0591 0001533  86.2176 273.8991 15.08835908 96260,6917.893,95.438,540.818,538.697,0.0
51892.0,STARLINK-3587,PAYLOAD,2023-11-19 21:36:01,15.08837752,0.0001547,53.2161,173.5725,86.1728,273.9441,7.9833e-05,9.83e-06,0.0,0 STARLINK-3587,1 51892U 22022AS  23323.90002075  .00000983  00000-0  79833-4 0  9993,2 51892  53.2161 173.5725 0001547  86.1728 273.9441 15.08837752 96319,6917.887,95.438,540.822,538.682,0.0
51892.0,STARLINK-3587,PAYLOAD,2023-11-20 00:46:47,15.08839132,0.0001555,53.2159,172.9776,85.9879,274.1291,8.7571e-05,1.106e-05,0.0,0 STARLINK-3587,1 51892U 22022AS  23324.03249983  .00001106  00000-0  87571-4 0  9995,2 51892  53.2159 172.9776 0001555  85.9879 274.1291 15.08839132 96330,6917.883,95.438,540.824,538.672,0.0
51892.0,STARLINK-3587,PAYLOAD,2023-11-20 07:08:20,15.08838336,0.0001555,53.2156,171.7882,88.443,271.674,7.1927e-05,8.57e-06,0.0,0 STARLINK-3587,1 51892U 22022AS  23324.29746142  .00000857  00000-0  71927-4 0  9992,2 51892  53.2156 171.7882 0001555  88.4430 271.6740 15.08838336 96373,6917.885,95.438,540.826,538.675,0.0
51892.0,STARLINK-3587,PAYLOAD,2023-11-20 21:26:48,15.08843124,0.0001589,53.216,169.1119,88.8066,271.3109,6.42e-05,7.34e-06,0.0,0 STARLINK-3587,1 51892U 22022AS  23324.89361818  .00000734  00000-0  64200-4 0  9991,2 51892  53.2160 169.1119 0001589  88.8066 271.3109 15.08843124 96465,6917.871,95.437,540.835,538.637,0.0
51892.0,STARLINK-3587,PAYLOAD,2023-11-20 23:02:11,15.08844318,0.0001593,53.2161,168.8146,88.6932,271.4243,7.3813e-05,8.87e-06,0.0,0 STARLINK-3587,1 51892U 22022AS  23324.95985706  .00000887  00000-0  73813-4 0  9995,2 51892  53.2161 168.8146 0001593  88.6932 271.4243 15.08844318 96474,6917.867,95.437,540.834,538.63,0.0
51892.0,STARLINK-3587,PAYLOAD,2023-11-21 19:42:12,15.08848055,0.0001563,53.2161,164.9482,89.3716,270.7455,8.37e-05,1.045e-05,0.0,0 STARLINK-3587,1 51892U 22022AS  23325.82097337  .00001045  00000-0  83700-4 0  9999,2 51892  53.2161 164.9482 0001563  89.3716 270.7455 15.08848055 96603,6917.856,95.437,540.802,538.64,0.0
51892.0,STARLINK-3587,PAYLOAD,2023-11-22 13:11:26,15.0884376,0.0001549,53.2158,161.6773,89.3613,270.7557,6.8001e-05,7.95e-06,0.0,0 STARLINK-3587,1 51892U 22022AS  23326.54961493  .00000795  00000-0  68001-4 0  9990,2 51892  53.2158 161.6773 0001549  89.3613 270.7557 15.08843760 96719,6917.869,95.437,540.805,538.662,0.0
51892.0,STARLINK-3587,PAYLOAD,2023-11-22 19:32:59,15.08846027,0.000153,53.2156,160.4883,85.4442,274.6724,3.8085e-05,3.18e-06,0.0,0 STARLINK-3587,1 51892U 22022AS  23326.81457370  .00000318  00000-0  38085-4 0  9994,2 51892  53.2156 160.4883 0001530  85.4442 274.6724 15.08846027 96755,6917.862,95.437,540.785,538.669,0.0
